RSP-03                  
1 65732U 98067XL  26043.27052805  .01497745  15995-2  14805-2 0  9995
2 65732  51.6120 176.7484 0009314 323.2165  36.8209 16.10910039 22907
YOTSUBA-KULOVER         
1 65941U 98067XN  26043.27429969  .00158238  00000+0  11723-2 0  9990
2 65941  51.6244 188.1819 0004440 286.2455  73.8054 15.71881503 19498
BOTAN                   
1 65942U 98067XP  26042.80224071  .00400641  00000+0  14631-2 0  9995
2 65942  51.6168 186.4744 0007597 307.2999  52.7312 15.86770887 19474
E-KAGAKU-1              
1 65943U 98067XQ  26042.44874700  .00152677  00000+0  11493-2 0  9992
2 65943  51.6273 192.4326 0003837 294.8834  65.1765 15.71525219 19366
HRC MONOBLOCK CAMERA    
1 66052U 98067XR  26042.44858747  .00051483  00000+0  63937-3 0  9991
2 66052  51.6270 197.6825 0001387 357.2384   2.8601 15.59478533 18298
HTV-X1                  
1 66174U 25241A   26043.14939979  .00009847  00000+0  18925-3 0  9999
2 66174  51.6314 198.6099 0011093  90.1489 270.0770 15.48559167   513
SZ-21 MODULE            
1 66515U 25246C   26043.27056566  .00039145  00000+0  36437-3 0  9991
2 66515  41.4762 359.5986 0002499 292.2665  67.7911 15.66611010 14081
SHENZHOU-22             
1 66645U 25272A   26043.23740446  .00027248  00000+0  33631-3 0  9991
2 66645  41.4683   2.8971 0004186  69.0977 291.0309 15.59536312267648
SOYUZ-MS 28             
1 66664U 25275A   26043.14939979  .00009847  00000+0  18925-3 0  9990
2 66664  51.6314 198.6099 0011093  90.1489 270.0770 15.48559167  1282
DUPLEX                  
1 66906U 98067XS  26042.94894763  .00034677  00000+0  52329-3 0  9991
2 66906  51.6289 198.0236 0001301  81.3904 278.7234 15.54415576 11120
ISS OBJECT XT           
1 66907U 98067XT  26042.66511504  .00117213  00000+0  12885-2 0  9990
2 66907  51.6267 197.6271 0001776 270.8577  89.2213 15.62295746 11102
ISS OBJECT XU           
1 66908U 98067XU  26042.66447721  .00118276  00000+0  12982-2 0  9998
2 66908  51.6266 197.6208 0001653 277.2112  82.8694 15.62331161 11106
